<?xml version="1.0" encoding="UTF-8"?>
<kml xmlns="http://www.opengis.net/kml/2.2" xmlns:gx="http://www.google.com/kml/ext/2.2" xmlns:kml="http://www.opengis.net/kml/2.2" xmlns:atom="http://www.w3.org/2005/Atom">
<Document>
	<name>Mula Mutha River.kml</name>
	<StyleMap id="m_ylw-pushpin">
		<Pair>
			<key>normal</key>
			<styleUrl>#s_ylw-pushpin</styleUrl>
		</Pair>
		<Pair>
			<key>highlight</key>
			<styleUrl>#s_ylw-pushpin_hl</styleUrl>
		</Pair>
	</StyleMap>
	<Style id="s_ylw-pushpin">
		<IconStyle>
			<scale>1.1</scale>
			<Icon>
				<href>http://maps.google.com/mapfiles/kml/pushpin/ylw-pushpin.png</href>
			</Icon>
			<hotSpot x="20" y="2" xunits="pixels" yunits="pixels"/>
		</IconStyle>
		<LineStyle>
			<width>1.5</width>
		</LineStyle>
		<PolyStyle>
			<fill>0</fill>
		</PolyStyle>
	</Style>
	<Style id="s_ylw-pushpin_hl">
		<IconStyle>
			<scale>1.3</scale>
			<Icon>
				<href>http://maps.google.com/mapfiles/kml/pushpin/ylw-pushpin.png</href>
			</Icon>
			<hotSpot x="20" y="2" xunits="pixels" yunits="pixels"/>
		</IconStyle>
		<LineStyle>
			<width>1.5</width>
		</LineStyle>
		<PolyStyle>
			<fill>0</fill>
		</PolyStyle>
	</Style>
	<Placemark>
		<name>Mula Mutha River</name>
		<styleUrl>#m_ylw-pushpin</styleUrl>
		<Polygon>
			<tessellate>1</tessellate>
			<outerBoundaryIs>
				<LinearRing>
					<coordinates>
						73.85531491287065,18.53203371377058,0 73.85650832949538,18.53145364861817,0 73.85792377651703,18.53055524330031,0 73.85937418420019,18.52987164253711,0 73.86112891947792,18.52988420542299,0 73.86115192850394,18.5308827728255,0 73.86195881765843,18.53183282587016,0 73.86309507323108,18.53292988507223,0 73.86361654669147,18.5330325256886,0 73.86543214413373,18.53281615138994,0 73.86641019983112,18.53341001936614,0 73.86685376968069,18.53394172677077,0 73.86752629595922,18.53479905229295,0 73.86812297985411,18.53563227127903,0 73.86894306678997,18.53683203750589,0 73.86963824251106,18.53765593450293,0 73.87120682281768,18.53901771551697,0 73.87410444360991,18.54031143998328,0 73.8767108216102,18.54119468628022,0 73.87887702052012,18.54172524719078,0 73.88113447769824,18.54198264136123,0 73.88375167814955,18.54217865594716,0 73.88714643350973,18.54253283073896,0 73.89110883430222,18.54273362470011,0 73.8955200390549,18.54174157566317,0 73.89973904870557,18.54087454984237,0 73.90383889147003,18.54048714445699,0 73.90849859340967,18.54041195901101,0 73.91529596917982,18.53872698464335,0 73.92057858739571,18.53832163917508,0 73.92472065051579,18.53792961819815,0 73.93007672707911,18.5362023694908,0 73.93318517029492,18.53541315149733,0 73.9358954805008,18.53439723640752,0 73.93886915107954,18.53508620003614,0 73.94055458551149,18.53593280513165,0 73.94192867803207,18.53861369400217,0 73.94300443530695,18.54102916906707,0 73.94439779244458,18.54313273323448,0 73.94624327844166,18.54448972635047,0 73.94820693142682,18.54457845603605,0 73.95114732630803,18.54434245244779,0 73.9532799685623,18.54501106672212,0 73.95667860190677,18.54578872301167,0 73.95942654017252,18.54617069659676,0 73.96439417498054,18.54310148537659,0 73.96886207760733,18.54219558579562,0 73.97293179058919,18.54053104308154,0 73.97433637811858,18.5369334380297,0 73.97621601013992,18.53258917098467,0 73.9790841627004,18.52995904607749,0 73.98252857792001,18.52752528476458,0 73.98616531407181,18.52536271826627,0 73.98911175969974,18.52321822656508,0 73.99041452747234,18.52203333110812,0 73.99120173153877,18.52076259572667,0 73.99343967536551,18.52107782626776,0 73.99342035696257,18.52173269865781,0 73.99295565457329,18.52281874305708,0 73.99078096419473,18.52477618975422,0 73.98941496257572,18.52574391377315,0 73.98739270077751,18.52699354317635,0 73.98579045981043,18.52758688366936,0 73.98498866215856,18.52804631809076,0 73.98416024391463,18.52870764143502,0 73.98277205731718,18.5293121000708,0 73.98180657152666,18.52991956739824,0 73.98074006810121,18.53062752012912,0 73.9800181548527,18.53132310439924,0 73.97951188459281,18.5314268600002,0 73.97908396943738,18.53185416660649,0 73.97864865059303,18.532325510984,0 73.97821219669615,18.53256781527612,0 73.97804040724436,18.53284426462778,0 73.97744344133606,18.53381662914927,0 73.97701412487312,18.53432624706902,0 73.97653709976365,18.53521584017616,0 73.97612145657256,18.53581323418951,0 73.9757788858428,18.53633443418835,0 73.97575641734191,18.53682207048944,0 73.97569999804972,18.53749754823231,0 73.9754760482063,18.53813959786264,0 73.97515686172315,18.53922679053004,0 73.97474712839995,18.53978860089433,0 73.97438751688784,18.54035297297379,0 73.97391496014801,18.54073260248425,0 73.97346636710512,18.54104724114939,0 73.97314287042362,18.54181266736878,0 73.97274371910514,18.54227652980223,0 73.97172254809142,18.542833495875,0 73.97100860760978,18.54310697623728,0 73.96999020191539,18.54344562295327,0 73.96905448099787,18.54364066906749,0 73.96814870157407,18.54379653463857,0 73.96688320615638,18.54411412040505,0 73.96544837282198,18.54449660741326,0 73.9641740176253,18.54497637833302,0 73.96330279961175,18.54526355473066,0 73.96273492987554,18.54568914298797,0 73.96173572327888,18.546211551121,0 73.96086695055614,18.5468866096198,0 73.96056221378207,18.5472169067969,0 73.95984209997128,18.54721809207057,0 73.95882126044353,18.54727939192355,0 73.9577835043933,18.54725602097791,0 73.95595216356044,18.54691423993185,0 73.95514171474912,18.54682185916479,0 73.95416668903422,18.5465520985712,0 73.95343215673364,18.54661834004819,0 73.95249860440639,18.54659355113616,0 73.95185421206844,18.54645072964875,0 73.9511897310782,18.54630499277312,0 73.95024618296799,18.54633583595518,0 73.9495811741598,18.54635215959757,0 73.94846850767738,18.54627243240002,0 73.94695817097973,18.54615564019768,0 73.9461332698197,18.5461887494191,0 73.94535568568563,18.54599603828234,0 73.94469297004538,18.54562168334011,0 73.94409988104663,18.54519023281959,0 73.94356765368255,18.54483877056571,0 73.9429868057867,18.5444095952082,0 73.94245088273014,18.54348510310055,0 73.94171584606656,18.54211021125525,0 73.94087959432898,18.54053100601632,0 73.9405506402648,18.53953352667084,0 73.93973367783228,18.53795083009994,0 73.93873354970383,18.53695838782082,0 73.93794557061135,18.53673857032424,0 73.93705908383541,18.53675613548536,0 73.93613687631975,18.53677510686715,0 73.93567206429015,18.53686537556863,0 73.93475619619994,18.53727700783352,0 73.93411934822407,18.53699824445454,0 73.93323586061202,18.53691221957803,0 73.93215077376937,18.53704703518726,0 73.93075311345166,18.53741232970534,0 73.92969897825405,18.5378193212054,0 73.92905573347861,18.53811980167871,0 73.92770260634508,18.53862628931815,0 73.92643354184837,18.53889042778971,0 73.92520516798912,18.53910186888122,0 73.924454110075,18.53924640155513,0 73.92282130328633,18.53947494027508,0 73.92173181259666,18.53966185543158,0 73.91995605607953,18.53991158709903,0 73.91821179200609,18.53998397613177,0 73.91631250788076,18.54015647292946,0 73.91567220524348,18.54022423554341,0 73.91352440564984,18.54063806952574,0 73.91222326067249,18.54087721059955,0 73.91142232966499,18.54107607448452,0 73.91076212767665,18.54126628711592,0 73.90976917695055,18.54143174322914,0 73.90878356434936,18.54153643552211,0 73.90759871573263,18.54154534310648,0 73.90616941302358,18.54188013801028,0 73.9053347894953,18.54197795560254,0 73.90325876801667,18.54200745471279,0 73.90107814482863,18.54222206348598,0 73.89750511535792,18.54291397428816,0 73.89529532424989,18.54337471463567,0 73.89241354670588,18.54418227790558,0 73.8904737401361,18.54451953046186,0 73.88818559183356,18.54442549924393,0 73.88617552015629,18.54435180186324,0 73.88459520100395,18.54417450756801,0 73.88282404289261,18.54388323006027,0 73.88140601478941,18.54368500560155,0 73.87900810070127,18.54320274672513,0 73.87606072218375,18.5424207810959,0 73.87324890636654,18.54139735029695,0 73.87072681334232,18.54045178976681,0 73.8694362669553,18.53996330980562,0 73.8683136049699,18.53966148949812,0 73.86670230909178,18.53905122188194,0 73.86548299209126,18.53826388539966,0 73.86468179182197,18.53772683844577,0 73.86375846658218,18.53696416013159,0 73.86303234805965,18.5359455971684,0 73.86253904279091,18.53494687485156,0 73.86154757648282,18.53297321548859,0 73.86035784547359,18.53224046756875,0 73.85906918446868,18.53181623119083,0 73.85844352720984,18.5317734961029,0 73.85770731451085,18.53194436674088,0 73.85681898733266,18.53241970393746,0 73.85598228275816,18.53334720010422,0 73.85496516181541,18.53287085525449,0 73.85531491287065,18.53203371377058,0 
					</coordinates>
				</LinearRing>
			</outerBoundaryIs>
		</Polygon>
		<atom:link rel="app" href="https://www.google.com/earth/about/versions/#earth-pro" title="Google Earth Pro 7.3.7.1155"></atom:link>
	</Placemark>
</Document>
</kml>
